start=new Date('2022-09-22T00:00:00.000Z').valueOf();
sats=[{"EPOCH":"2022-09-21T16:07:00.143616","PERIOD":"95.920","LAUNCH_DATE":"2022-07-11","SEMIMAJOR_AXIS":"6941.181","MEAN_ANOMALY":"151.4111","MEAN_ELEMENT_THEORY":"SGP4","INCLINATION":"97.6535","COUNTRY_CODE":"US","RA_OF_ASC_NODE":"84.5748","MEAN_MOTION_DOT":"0.00000623","CENTER_NAME":"EARTH","FILE":"3579752","MEAN_MOTION":"15.01248833","NORAD_CAT_ID":"53071","REF_FRAME":"TEME","EPHEMERIS_TYPE":"0","ECCENTRICITY":"0.00008510","REV_AT_EPOCH":"1112","TLE_LINE1":"1 53071U 22077AE  22264.67152944  .00000623  00000-0  53090-4 0  9990","MEAN_MOTION_DDOT":"0.0000000000000","APOAPSIS":"563.637","OBJECT_TYPE":"PAYLOAD","RCS_SIZE":"LARGE","ELEMENT_SET_NO":"999","SITE":"AFWTR","TIME_SYSTEM":"UTC","TLE_LINE2":"2 53071  97.6535  84.5748 0000851 208.7067 151.4111 15.01248833 11127","OBJECT_ID":"2022-077AE","GP_ID":"213194126","BSTAR":"0.00005309000000","ARG_OF_PERICENTER":"208.7067","OBJECT_NAME":"STARLINK-4328","DECAY_DATE":null,"CLASSIFICATION_TYPE":"U","PERIAPSIS":"562.456"},{"OBJECT_TYPE":"PAYLOAD","RCS_SIZE":"LARGE","SITE":"AFWTR","TIME_SYSTEM":"UTC","ELEMENT_SET_NO":"999","TLE_LINE2":"2 53072  97.6530  84.6442 0001106 240.8755 119.2358 15.01253873 11136","ARG_OF_PERICENTER":"240.8755","BSTAR":"-0.00012073000000","GP_ID":"213193966","OBJECT_ID":"2022-077AF","OBJECT_NAME":"STARLINK-4344","DECAY_DATE":null,"CLASSIFICATION_TYPE":"U","PERIAPSIS":"562.263","LAUNCH_DATE":"2022-07-11","EPOCH":"2022-09-21T17:48:17.714016","PERIOD":"95.920","COUNTRY_CODE":"US","INCLINATION":"97.6530","MEAN_ELEMENT_THEORY":"SGP4","SEMIMAJOR_AXIS":"6941.166","MEAN_ANOMALY":"119.2358","NORAD_CAT_ID":"53072","FILE":"3579752","MEAN_MOTION":"15.01253873","CENTER_NAME":"EARTH","MEAN_MOTION_DOT":"-0.00001609","RA_OF_ASC_NODE":"84.6442","EPHEMERIS_TYPE":"0","REF_FRAME":"TEME","MEAN_MOTION_DDOT":"0.0000000000000","REV_AT_EPOCH":"1113","TLE_LINE1":"1 53072U 22077AF  22264.74187169 -.00001609  00000-0 -12073-3 0  9998","ECCENTRICITY":"0.00011060","APOAPSIS":"563.798"},{"ECCENTRICITY":"0.00008280","REV_AT_EPOCH":"1110","TLE_LINE1":"1 53073U 22077AG  22264.53450998 -.00001337  00000-0 -99515-4 0  9994","MEAN_MOTION_DDOT":"0.0000000000000","APOAPSIS":"563.593","RA_OF_ASC_NODE":"84.4404","MEAN_MOTION_DOT":"-0.00001337","CENTER_NAME":"EARTH","FILE":"3579752","MEAN_MOTION":"15.01257867","NORAD_CAT_ID":"53073","REF_FRAME":"TEME","EPHEMERIS_TYPE":"0","PERIOD":"95.920","EPOCH":"2022-09-21T12:49:41.662272","LAUNCH_DATE":"2022-07-11","SEMIMAJOR_AXIS":"6941.153","MEAN_ELEMENT_THEORY":"SGP4","MEAN_ANOMALY":"154.5308","INCLINATION":"97.6531","COUNTRY_CODE":"US","PERIAPSIS":"562.444","OBJECT_ID":"2022-077AG","GP_ID":"213193240","BSTAR":"-0.00009951500000","ARG_OF_PERICENTER":"205.5875","DECAY_DATE":null,"CLASSIFICATION_TYPE":"U","OBJECT_NAME":"STARLINK-4346","ELEMENT_SET_NO":"999","SITE":"AFWTR","TIME_SYSTEM":"UTC","TLE_LINE2":"2 53073  97.6531  84.4404 0000828 205.5875 154.5308 15.01257867 11106","OBJECT_TYPE":"PAYLOAD","RCS_SIZE":"LARGE"},{"MEAN_ELEMENT_THEORY":"SGP4","SEMIMAJOR_AXIS":"6941.167","MEAN_ANOMALY":"71.3586","INCLINATION":"97.6528","COUNTRY_CODE":"US","PERIOD":"95.920","EPOCH":"2022-09-21T16:07:21.662400","LAUNCH_DATE":"2022-07-11","REF_FRAME":"TEME","EPHEMERIS_TYPE":"0","RA_OF_ASC_NODE":"84.5779","MEAN_MOTION_DOT":"0.00000383","CENTER_NAME":"EARTH","FILE":"3579752","MEAN_MOTION":"15.01253586","NORAD_CAT_ID":"53074","APOAPSIS":"563.191","ECCENTRICITY":"0.00002300","TLE_LINE1":"1 53074U 22077AH  22264.67177850  .00000383  00000-0  34416-4 0  9990","REV_AT_EPOCH":"1112","MEAN_MOTION_DDOT":"0.0000000000000","RCS_SIZE":"LARGE","OBJECT_TYPE":"PAYLOAD","TLE_LINE2":"2 53074  97.6528  84.5779 0000230 288.7613  71.3586 15.01253586 11129","ELEMENT_SET_NO":"999","TIME_SYSTEM":"UTC","SITE":"AFWTR","CLASSIFICATION_TYPE":"U","DECAY_DATE":null,"OBJECT_NAME":"STARLINK-4310","OBJECT_ID":"2022-077AH","GP_ID":"213193400","BSTAR":"0.00003441600000","ARG_OF_PERICENTER":"288.7613","PERIAPSIS":"562.872"},{"APOAPSIS":"563.686","TLE_LINE1":"1 53075U 22077AJ  22264.53104577  .00001702  00000-0  13704-3 0  9994","REV_AT_EPOCH":"1110","ECCENTRICITY":"0.00009890","MEAN_MOTION_DDOT":"0.0000000000000","MEAN_ANOMALY":"344.1015","SEMIMAJOR_AXIS":"6941.135","MEAN_ELEMENT_THEORY":"SGP4","COUNTRY_CODE":"US","INCLINATION":"97.6555","PERIOD":"95.919","EPOCH":"2022-09-21T12:44:42.354528","LAUNCH_DATE":"2022-07-11","REF_FRAME":"TEME","EPHEMERIS_TYPE":"0","CENTER_NAME":"EARTH","MEAN_MOTION_DOT":"0.00001702","RA_OF_ASC_NODE":"84.4398","MEAN_MOTION":"15.01263915","FILE":"3579752","NORAD_CAT_ID":"53075","CLASSIFICATION_TYPE":"U","DECAY_DATE":null,"OBJECT_NAME":"STARLINK-4348","GP_ID":"213194348","OBJECT_ID":"2022-077AJ","ARG_OF_PERICENTER":"16.0240","BSTAR":"0.00013704000000","PERIAPSIS":"562.313","RCS_SIZE":"LARGE","OBJECT_TYPE":"PAYLOAD","TLE_LINE2":"2 53075  97.6555  84.4398 0000989  16.0240 344.1015 15.01263915 11108","TIME_SYSTEM":"UTC","SITE":"AFWTR","ELEMENT_SET_NO":"999"},{"OBJECT_TYPE":"PAYLOAD","RCS_SIZE":"LARGE","SITE":"AFWTR","TIME_SYSTEM":"UTC","ELEMENT_SET_NO":"999","TLE_LINE2":"2 53076  97.6534  84.6392 0000783 221.3503 138.7662 15.01260371 11138","ARG_OF_PERICENTER":"221.3503","BSTAR":"0.00009798900000","GP_ID":"213193552","OBJECT_ID":"2022-077AK","OBJECT_NAME":"STARLINK-4347","DECAY_DATE":null,"CLASSIFICATION_TYPE":"U","PERIAPSIS":"562.467","LAUNCH_DATE":"2022-07-11","EPOCH":"2022-09-21T17:40:18.773760","PERIOD":"95.919","COUNTRY_CODE":"US","INCLINATION":"97.6534","SEMIMAJOR_AXIS":"6941.146","MEAN_ANOMALY":"138.7662","MEAN_ELEMENT_THEORY":"SGP4","MEAN_MOTION":"15.01260371","FILE":"3579752","NORAD_CAT_ID":"53076","MEAN_MOTION_DOT":"0.00001200","CENTER_NAME":"EARTH","RA_OF_ASC_NODE":"84.6392","EPHEMERIS_TYPE":"0","REF_FRAME":"TEME","MEAN_MOTION_DDOT":"0.0000000000000","REV_AT_EPOCH":"1113","TLE_LINE1":"1 53076U 22077AK  22264.73632840  .00001200  00000-0  97989-4 0  9997","ECCENTRICITY":"0.00007830","APOAPSIS":"563.554"},{"GP_ID":"213193657","OBJECT_ID":"2022-077AL","ARG_OF_PERICENTER":"51.8684","BSTAR":"-0.00000867530000","CLASSIFICATION_TYPE":"U","DECAY_DATE":null,"OBJECT_NAME":"STARLINK-4315","PERIAPSIS":"562.664","OBJECT_TYPE":"PAYLOAD","RCS_SIZE":"LARGE","SITE":"AFWTR","TIME_SYSTEM":"UTC","ELEMENT_SET_NO":"999","TLE_LINE2":"2 53077  97.6563  84.4437 0000494  51.8684 308.2585 15.01261585 11107","REV_AT_EPOCH":"1110","TLE_LINE1":"1 53077U 22077AL  22264.52895163 -.00000170  00000-0 -86753-5 0  9999","ECCENTRICITY":"0.00004940","MEAN_MOTION_DDOT":"0.0000000000000","APOAPSIS":"563.350","EPOCH":"2022-09-21T12:41:41.420832","PERIOD":"95.919","LAUNCH_DATE":"2022-07-11","SEMIMAJOR_AXIS":"6941.142","MEAN_ANOMALY":"308.2585","MEAN_ELEMENT_THEORY":"SGP4","COUNTRY_CODE":"US","INCLINATION":"97.6563","CENTER_NAME":"EARTH","MEAN_MOTION_DOT":"-0.00000170","RA_OF_ASC_NODE":"84.4437","FILE":"3579752","MEAN_MOTION":"15.01261585","NORAD_CAT_ID":"53077","REF_FRAME":"TEME","EPHEMERIS_TYPE":"0"},{"TLE_LINE2":"2 53078  97.6543  84.5702 0000259  73.3184 286.8068 15.01271138 11129","TIME_SYSTEM":"UTC","SITE":"AFWTR","ELEMENT_SET_NO":"999","RCS_SIZE":"LARGE","OBJECT_TYPE":"PAYLOAD","PERIAPSIS":"562.798","CLASSIFICATION_TYPE":"U","DECAY_DATE":null,"OBJECT_NAME":"STARLINK-4322","ARG_OF_PERICENTER":"73.3184","BSTAR":"0.00008657700000","GP_ID":"213193816","OBJECT_ID":"2022-077AM","EPHEMERIS_TYPE":"0","REF_FRAME":"TEME","FILE":"3579752","MEAN_MOTION":"15.01271138","NORAD_CAT_ID":"53078","CENTER_NAME":"EARTH","MEAN_MOTION_DOT":"0.00001054","RA_OF_ASC_NODE":"84.5702","COUNTRY_CODE":"US","INCLINATION":"97.6543","MEAN_ANOMALY":"286.8068","SEMIMAJOR_AXIS":"6941.113","MEAN_ELEMENT_THEORY":"SGP4","LAUNCH_DATE":"2022-07-11","PERIOD":"95.919","EPOCH":"2022-09-21T15:58:59.362176","APOAPSIS":"563.157","MEAN_MOTION_DDOT":"0.0000000000000","REV_AT_EPOCH":"1112","TLE_LINE1":"1 53078U 22077AM  22264.66596484  .00001054  00000-0  86577-4 0  9992","ECCENTRICITY":"0.00002590"},{"CENTER_NAME":"EARTH","MEAN_MOTION_DOT":"-0.00000295","RA_OF_ASC_NODE":"84.4471","NORAD_CAT_ID":"53079","FILE":"3579752","MEAN_MOTION":"15.01254459","REF_FRAME":"TEME","EPHEMERIS_TYPE":"0","EPOCH":"2022-09-21T12:39:03.023712","PERIOD":"95.920","LAUNCH_DATE":"2022-07-11","MEAN_ELEMENT_THEORY":"SGP4","SEMIMAJOR_AXIS":"6941.164","MEAN_ANOMALY":"312.2244","COUNTRY_CODE":"US","INCLINATION":"97.6587","TLE_LINE1":"1 53079U 22077AN  22264.52711833 -.00000295  00000-0 -18414-4 0  9998","REV_AT_EPOCH":"1110","ECCENTRICITY":"0.00006360","MEAN_MOTION_DDOT":"0.0000000000000","APOAPSIS":"563.470","SITE":"AFWTR","TIME_SYSTEM":"UTC","ELEMENT_SET_NO":"999","TLE_LINE2":"2 53079  97.6587  84.4471 0000636  47.9034 312.2244 15.01254459 11105","OBJECT_TYPE":"PAYLOAD","RCS_SIZE":"LARGE","PERIAPSIS":"562.587","GP_ID":"213194127","OBJECT_ID":"2022-077AN","ARG_OF_PERICENTER":"47.9034","BSTAR":"-0.00001841400000","OBJECT_NAME":"STARLINK-4327","DECAY_DATE":null,"CLASSIFICATION_TYPE":"U"},{"APOAPSIS":"563.085","ECCENTRICITY":"0.00001030","TLE_LINE1":"1 53080U 22077AP  22264.66410751  .00001115  00000-0  91420-4 0  9998","REV_AT_EPOCH":"1112","MEAN_MOTION_DDOT":"0.0000000000000","REF_FRAME":"TEME","EPHEMERIS_TYPE":"0","RA_OF_ASC_NODE":"84.5736","CENTER_NAME":"EARTH","MEAN_MOTION_DOT":"0.00001115","FILE":"3579752","NORAD_CAT_ID":"53080","MEAN_MOTION":"15.01259442","MEAN_ANOMALY":"78.3924","SEMIMAJOR_AXIS":"6941.149","MEAN_ELEMENT_THEORY":"SGP4","INCLINATION":"97.6552","COUNTRY_CODE":"US","EPOCH":"2022-09-21T15:56:18.888864","PERIOD":"95.919","LAUNCH_DATE":"2022-07-11","PERIAPSIS":"562.942","DECAY_DATE":null,"OBJECT_NAME":"STARLINK-4330","CLASSIFICATION_TYPE":"U","OBJECT_ID":"2022-077AP","GP_ID":"213193967","BSTAR":"0.00009142000000","ARG_OF_PERICENTER":"281.7288","TLE_LINE2":"2 53080  97.6552  84.5736 0000103 281.7288  78.3924 15.01259442 11126","ELEMENT_SET_NO":"999","TIME_SYSTEM":"UTC","SITE":"AFWTR","RCS_SIZE":"LARGE","OBJECT_TYPE":"PAYLOAD"}];
